SENTINEL-6              
1 46984U 20086A   24185.93990918 -.00000037  00000+0  10222-3 0  9995
2 46984  66.0391 176.4744 0007951 270.1672  89.8432 12.80929679168976
